1 36395K 10005A   10048.97821000  .00000000  00000-0  00000-0 0 00005
2 36395 028.5221 191.5690 5705690 042.0610 185.1470 02.00890520000129
1 36395K 10005A   10048.97821000  .00000000  00000-0  00000-0 0 00005
2 36395 028.5221 191.5690 5705690 042.0610 185.1470 02.00890520000129
1 36395K 10005A   10048.97821000  .00000000  00000-0  00000-0 0 00005
2 36395 028.5221 191.5690 5705690 042.0610 185.1470 02.00890520000129
1 36395K 10005A   10048.97821000  .00000000  00000-0  00000-0 0 00005
2 36395 028.5221 191.5690 5705690 042.0610 185.1470 02.00890520000129
